{"type": "FeatureCollection", "features": [ {"type": "Feature", "properties": {"norad_id": 66439, "name": "STARLINK-35327", "group": "last-30-days", "lat": -37.23216474682694, "lon": 30.67828978254385, "alt_km": 417.49782516806135, "timestamp": "2025-12-06T05:40:08.010649+00:00", "meta": {"OBJECT_NAME": "STARLINK-35327", "OBJECT_ID": "2025-259T", "EPOCH": "2025-12-05T00:00:02.999808", "MEAN_MOTION": 15.50608503, "ECCENTRICITY": 0.00016148, "INCLINATION": 43.0006, "RA_OF_ASC_NODE": 92.5456, "ARG_OF_PERICENTER": 267.7138, "MEAN_ANOMALY": 321.3225, "EPHEMERIS_TYPE": 0, "CLASSIFICATION_TYPE": "U", "NORAD_CAT_ID": 66439, "ELEMENT_SET_NO": 999, "REV_AT_EPOCH": 503, "BSTAR": -0.0011237973, "MEAN_MOTION_DOT": -0.00065788, "MEAN_MOTION_DDOT": 0}, "tle": {"line1": "1 66439U 25259T   25339.00003472 -.00065788  00000+0 -11238-2 0  9991", "line2": "2 66439  43.0006  92.5456 0001614 267.7138 321.3225 15.50608503  5039"}}, "geometry": {"type": "Point", "coordinates": [30.67828978254385, -37.23216474682694]}}, {"type": "Feature", "properties": {"norad_id": 66440, "name": "STARLINK-35405", "group": "last-30-days", "lat": -33.89101391537286, "lon": 39.16796621276023, "alt_km": 417.37076912292196, "timestamp": "2025-12-06T05:40:08.010659+00:00", "meta": {"OBJECT_NAME": "STARLINK-35405", "OBJECT_ID": "2025-259U", "EPOCH": "2025-12-05T00:00:02.999808", "MEAN_MOTION": 15.50594995, "ECCENTRICITY": 0.00014967, "INCLINATION": 43.0006, "RA_OF_ASC_NODE": 92.5251, "ARG_OF_PERICENTER": 271.4204, "MEAN_ANOMALY": 325.2944, "EPHEMERIS_TYPE": 0, "CLASSIFICATION_TYPE": "U", "NORAD_CAT_ID": 66440, "ELEMENT_SET_NO": 999, "REV_AT_EPOCH": 503, "BSTAR": -0.00089389837, "MEAN_MOTION_DOT": -0.00052462, "MEAN_MOTION_DDOT": 0}, "tle": {"line1": "1 66440U 25259U   25339.00003472 -.00052462  00000+0 -89390-3 0  9993", "line2": "2 66440  43.0006  92.5251 0001496 271.4204 325.2944 15.50594995  5038"}}, "geometry": {"type": "Point", "coordinates": [39.16796621276023, -33.89101391537286]}}, {"type": "Feature", "properties": {"norad_id": 66441, "name": "STARLINK-35426", "group": "last-30-days", "lat": -32.97070339965837, "lon": 41.172948472097005, "alt_km": 417.24347371777094, "timestamp": "2025-12-06T05:40:08.010669+00:00", "meta": {"OBJECT_NAME": "STARLINK-35426", "OBJECT_ID": "2025-259V", "EPOCH": "2025-12-05T00:00:02.999808", "MEAN_MOTION": 15.50594833, "ECCENTRICITY": 0.00015885, "INCLINATION": 43.0007, "RA_OF_ASC_NODE": 92.5201, "ARG_OF_PERICENTER": 275.4914, "MEAN_ANOMALY": 323.1388, "EPHEMERIS_TYPE": 0, "CLASSIFICATION_TYPE": "U", "NORAD_CAT_ID": 66441, "ELEMENT_SET_NO": 999, "REV_AT_EPOCH": 503, "BSTAR": -0.00089023433, "MEAN_MOTION_DOT": -0.0005225, "MEAN_MOTION_DDOT": 0}, "tle": {"line1": "1 66441U 25259V   25339.00003472 -.00052250  00000+0 -89023-3 0  9992", "line2": "2 66441  43.0007  92.5201 0001588 275.4914 323.1388 15.50594833  5039"}}, "geometry": {"type": "Point", "coordinates": [41.172948472097005, -32.97070339965837]}}, {"type": "Feature", "properties": {"norad_id": 66442, "name": "STARLINK-34724", "group": "last-30-days", "lat": -32.05925796989584, "lon": 43.05477209147723, "alt_km": 417.5205560430695, "timestamp": "2025-12-06T05:40:08.010679+00:00", "meta": {"OBJECT_NAME": "STARLINK-34724", "OBJECT_ID": "2025-259W", "EPOCH": "2025-12-05T00:00:02.999808", "MEAN_MOTION": 15.50621701, "ECCENTRICITY": 0.00014465, "INCLINATION": 43.0006, "RA_OF_ASC_NODE": 92.5157, "ARG_OF_PERICENTER": 268.1024, "MEAN_ANOMALY": 332.4356, "EPHEMERIS_TYPE": 0, "CLASSIFICATION_TYPE": "U", "NORAD_CAT_ID": 66442, "ELEMENT_SET_NO": 999, "REV_AT_EPOCH": 503, "BSTAR": -0.0014917954, "MEAN_MOTION_DOT": -0.00087024, "MEAN_MOTION_DDOT": 0}, "tle": {"line1": "1 66442U 25259W   25339.00003472 -.00087024  00000+0 -14918-2 0  9990", "line2": "2 66442  43.0006  92.5157 0001446 268.1024 332.4356 15.50621701  5036"}}, "geometry": {"type": "Point", "coordinates": [43.05477209147723, -32.05925796989584]}}, {"type": "Feature", "properties": {"norad_id": 66443, "name": "STARLINK-35219", "group": "last-30-days", "lat": -31.071320451424647, "lon": 44.99280326165682, "alt_km": 417.56352956321825, "timestamp": "2025-12-06T05:40:08.010691+00:00", "meta": {"OBJECT_NAME": "STARLINK-35219", "OBJECT_ID": "2025-259X", "EPOCH": "2025-12-05T00:00:02.999808", "MEAN_MOTION": 15.50617334, "ECCENTRICITY": 0.00014133, "INCLINATION": 43.0007, "RA_OF_ASC_NODE": 92.5108, "ARG_OF_PERICENTER": 259.8778, "MEAN_ANOMALY": 342.5786, "EPHEMERIS_TYPE": 0, "CLASSIFICATION_TYPE": "U", "NORAD_CAT_ID": 66443, "ELEMENT_SET_NO": 999, "REV_AT_EPOCH": 492, "BSTAR": -0.0014018562, "MEAN_MOTION_DOT": -0.00081839, "MEAN_MOTION_DDOT": 0}, "tle": {"line1": "1 66443U 25259X   25339.00003472 -.00081839  00000+0 -14019-2 0  9991", "line2": "2 66443  43.0007  92.5108 0001413 259.8778 342.5786 15.50617334  4924"}}, "geometry": {"type": "Point", "coordinates": [44.99280326165682, -31.071320451424647]}}, {"type": "Feature", "properties": {"norad_id": 66444, "name": "STARLINK-35360", "group": "last-30-days", "lat": -27.942869569946833, "lon": 50.568357816129996, "alt_km": 417.3104214902187, "timestamp": "2025-12-06T05:40:08.010701+00:00", "meta": {"OBJECT_NAME": "STARLINK-35360", "OBJECT_ID": "2025-259Y", "EPOCH": "2025-12-05T00:00:02.999808", "MEAN_MOTION": 15.50610451, "ECCENTRICITY": 0.00015243, "INCLINATION": 43.0006, "RA_OF_ASC_NODE": 92.4954, "ARG_OF_PERICENTER": 260.2703, "MEAN_ANOMALY": 347.9379, "EPHEMERIS_TYPE": 0, "CLASSIFICATION_TYPE": "U", "NORAD_CAT_ID": 66444, "ELEMENT_SET_NO": 999, "REV_AT_EPOCH": 503, "BSTAR": -0.0011957104, "MEAN_MOTION_DOT": -0.00069943, "MEAN_MOTION_DDOT": 0}, "tle": {"line1": "1 66444U 25259Y   25339.00003472 -.00069943  00000+0 -11957-2 0  9992", "line2": "2 66444  43.0006  92.4954 0001524 260.2703 347.9379 15.50610451  5032"}}, "geometry": {"type": "Point", "coordinates": [50.568357816129996, -27.942869569946833]}}, {"type": "Feature", "properties": {"norad_id": 66445, "name": "STARLINK-34698", "group": "last-30-days", "lat": -30.055274613962293, "lon": 46.88838140022474, "alt_km": 417.5018255288023, "timestamp": "2025-12-06T05:40:08.010712+00:00", "meta": {"OBJECT_NAME": "STARLINK-34698", "OBJECT_ID": "2025-259Z", "EPOCH": "2025-12-05T00:00:02.999808", "MEAN_MOTION": 15.50617368, "ECCENTRICITY": 0.00016044, "INCLINATION": 43.0007, "RA_OF_ASC_NODE": 92.5049, "ARG_OF_PERICENTER": 254.249, "MEAN_ANOMALY": 350.1254, "EPHEMERIS_TYPE": 0, "CLASSIFICATION_TYPE": "U", "NORAD_CAT_ID": 66445, "ELEMENT_SET_NO": 999, "REV_AT_EPOCH": 492, "BSTAR": -0.0013779176, "MEAN_MOTION_DOT": -0.00080463, "MEAN_MOTION_DDOT": 0}, "tle": {"line1": "1 66445U 25259Z   25339.00003472 -.00080463  00000+0 -13779-2 0  9997", "line2": "2 66445  43.0007  92.5049 0001604 254.2490 350.1254 15.50617368  4924"}}, "geometry": {"type": "Point", "coordinates": [46.88838140022474, -30.055274613962293]}}, {"type": "Feature", "properties": {"norad_id": 66446, "name": "STARLINK-34986", "group": "last-30-days", "lat": -28.984254213695515, "lon": 48.79488436149683, "alt_km": 417.0678804935169, "timestamp": "2025-12-06T05:40:08.010722+00:00", "meta": {"OBJECT_NAME": "STARLINK-34986", "OBJECT_ID": "2025-259AA", "EPOCH": "2025-12-05T00:00:02.999808", "MEAN_MOTION": 15.50593285, "ECCENTRICITY": 0.0001686, "INCLINATION": 43.0007, "RA_OF_ASC_NODE": 92.5, "ARG_OF_PERICENTER": 269.6618, "MEAN_ANOMALY": 336.639, "EPHEMERIS_TYPE": 0, "CLASSIFICATION_TYPE": "U", "NORAD_CAT_ID": 66446, "ELEMENT_SET_NO": 999, "REV_AT_EPOCH": 503, "BSTAR": -0.00086943847, "MEAN_MOTION_DOT": -0.00051043, "MEAN_MOTION_DDOT": 0}, "tle": {"line1": "1 66446U 25259AA  25339.00003472 -.00051043  00000+0 -86944-3 0  9995", "line2": "2 66446  43.0007  92.5000 0001686 269.6618 336.6390 15.50593285  5038"}}, "geometry": {"type": "Point", "coordinates": [48.79488436149683, -28.984254213695515]}}, {"type": "Feature", "properties": {"norad_id": 66447, "name": "STARLINK-34851", "group": "last-30-days", "lat": -26.976424104283193, "lon": 52.15164918025787, "alt_km": 417.6588889951254, "timestamp": "2025-12-06T05:40:08.010732+00:00", "meta": {"OBJECT_NAME": "STARLINK-34851", "OBJECT_ID": "2025-259AB", "EPOCH": "2025-12-05T00:00:02.999808", "MEAN_MOTION": 15.50639288, "ECCENTRICITY": 0.00012839, "INCLINATION": 43.0007, "RA_OF_ASC_NODE": 92.4909, "ARG_OF_PERICENTER": 266.6367, "MEAN_ANOMALY": 343.5057, "EPHEMERIS_TYPE": 0, "CLASSIFICATION_TYPE": "U", "NORAD_CAT_ID": 66447, "ELEMENT_SET_NO": 999, "REV_AT_EPOCH": 492, "BSTAR": -0.0022816626, "MEAN_MOTION_DOT": -0.00132241, "MEAN_MOTION_DDOT": 0}, "tle": {"line1": "1 66447U 25259AB  25339.00003472 -.00132241  00000+0 -22817-2 0  9994", "line2": "2 66447  43.0007  92.4909 0001283 266.6367 343.5057 15.50639288  4925"}}, "geometry": {"type": "Point", "coordinates": [52.15164918025787, -26.976424104283193]}}, {"type": "Feature", "properties": {"norad_id": 66448, "name": "STARLINK-35355", "group": "last-30-days", "lat": -25.658481076564822, "lon": 54.2240931576433, "alt_km": 416.8057623557834, "timestamp": "2025-12-06T05:40:08.010745+00:00", "meta": {"OBJECT_NAME": "STARLINK-35355", "OBJECT_ID": "2025-259AC", "EPOCH": "2025-12-05T00:00:02.999808", "MEAN_MOTION": 15.50585902, "ECCENTRICITY": 0.00015514, "INCLINATION": 43.0008, "RA_OF_ASC_NODE": 92.4866, "ARG_OF_PERICENTER": 269.2635, "MEAN_ANOMALY": 342.7855, "EPHEMERIS_TYPE": 0, "CLASSIFICATION_TYPE": "U", "NORAD_CAT_ID": 66448, "ELEMENT_SET_NO": 999, "REV_AT_EPOCH": 503, "BSTAR": -0.00038079802, "MEAN_MOTION_DOT": -0.00022622, "MEAN_MOTION_DDOT": 0}, "tle": {"line1": "1 66448U 25259AC  25339.00003472 -.00022622  00000+0 -38080-3 0  9996", "line2": "2 66448  43.0008  92.4866 0001551 269.2635 342.7855 15.50585902  5037"}}, "geometry": {"type": "Point", "coordinates": [54.2240931576433, -25.658481076564822]}}]}